NORAD_CAT_ID,OBJECT_NAME,OBJECT_TYPE,EPOCH,MEAN_MOTION,ECCENTRICITY,INCLINATION,RA_OF_ASC_NODE,ARG_OF_PERICENTER,MEAN_ANOMALY,BSTAR,MEAN_MOTION_DOT,MEAN_MOTION_DDOT,TLE_LINE0,TLE_LINE1,TLE_LINE2,SEMIMAJOR_AXIS,PERIOD,APOGEE,PERIGEE,DECAYED
56494.0,STARLINK-5530,PAYLOAD,2023-06-10 11:43:07,15.69927228,0.0003354,69.9968,158.7926,259.1869,100.8949,9.1012e-06,8.82e-06,0.0,0 STARLINK-5530,1 56494U 23064AY  23161.48828223  .00000882  00000-0  91012-5 0  9999,2 56494  69.9968 158.7926 0003354 259.1869 100.8949 15.69927228  4859,6737.242,91.724,361.367,356.848,0.0
56494.0,STARLINK-5530,PAYLOAD,2023-06-10 23:57:09,15.69913216,0.0003531,69.9968,157.3588,267.4516,92.6275,1.8096e-05,1.963e-05,0.0,0 STARLINK-5530,1 56494U 23064AY  23161.99802216  .00001963  00000-0  18096-4 0  9990,2 56494  69.9968 157.3588 0003531 267.4516  92.6275 15.69913216  5286,6737.282,91.725,361.526,356.768,0.0
56494.0,STARLINK-5530,PAYLOAD,2023-06-11 06:04:08,15.69930926,0.0003475,69.9975,156.6445,260.2817,99.7987,8.5539e-06,8.16e-06,0.0,0 STARLINK-5530,1 56494U 23064AY  23162.25288143  .00000816  00000-0  85539-5 0  9990,2 56494  69.9975 156.6445 0003475 260.2817  99.7987 15.69930926  5320,6737.232,91.724,361.438,356.755,0.0
56494.0,STARLINK-5530,PAYLOAD,2023-06-11 12:11:09,15.69929184,0.0003426,69.9973,155.9271,254.2138,105.868,-5.0973e-06,-8.26e-06,0.0,0 STARLINK-5530,1 56494U 23064AY  23162.50775175 -.00000826  00000-0 -50973-5 0  9991,2 56494  69.9973 155.9271 0003426 254.2138 105.8680 15.69929184  5011,6737.237,91.724,361.41,356.793,0.0
56494.0,STARLINK-5530,PAYLOAD,2023-06-11 16:46:25,15.69922967,0.0003579,69.9956,155.3915,262.4409,97.638,1.1014e-05,1.112e-05,0.0,0 STARLINK-5530,1 56494U 23064AY  23162.69890280  .00001112  00000-0  11014-4 0  9995,2 56494  69.9956 155.3915 0003579 262.4409  97.6380 15.69922967  5390,6737.254,91.724,361.531,356.708,0.0
56494.0,STARLINK-5530,PAYLOAD,2023-06-12 01:56:55,15.6992648,0.0003139,69.9977,154.3148,265.1374,94.9464,5.3118e-06,4.26e-06,0.0,0 STARLINK-5530,1 56494U 23064AY  23163.08120300  .00000426  00000-0  53118-5 0  9997,2 56494  69.9977 154.3148 0003139 265.1374  94.9464 15.69926480  5109,6737.244,91.724,361.224,356.995,0.0
56494.0,STARLINK-5530,PAYLOAD,2023-06-12 09:35:42,15.69911406,0.0003135,69.9976,153.4195,269.0493,91.0344,-1.3581e-05,-1.844e-05,0.0,0 STARLINK-5530,1 56494U 23064AY  23163.39979929 -.00001844  00000-0 -13581-4 0  9996,2 56494  69.9976 153.4195 0003135 269.0493  91.0344 15.69911406  5153,6737.287,91.725,361.265,357.04,0.0
56494.0,STARLINK-5530,PAYLOAD,2023-06-12 23:21:28,15.69915792,0.0003776,69.9966,151.8073,260.5296,99.5473,2.4029e-06,7.6e-07,0.0,0 STARLINK-5530,1 56494U 23064AY  23163.97324360  .00000076  00000-0  24029-5 0  9997,2 56494  69.9966 151.8073 0003776 260.5296  99.5473 15.69915792  5593,6737.275,91.725,361.684,356.596,0.0
56494.0,STARLINK-5530,PAYLOAD,2023-06-13 02:24:58,15.69923064,0.0003021,69.9966,151.4472,252.9051,107.1814,-1.5632e-06,-4.01e-06,0.0,0 STARLINK-5530,1 56494U 23064AY  23164.10067466 -.00000401  00000-0 -15632-5 0  9998,2 56494  69.9966 151.4472 0003021 252.9051 107.1814 15.69923064  5618,6737.254,91.724,361.154,357.084,0.0
56494.0,STARLINK-5530,PAYLOAD,2023-06-13 07:00:13,15.69927701,0.0003403,69.9984,150.9135,256.8008,103.2808,5.3189e-06,4.27e-06,0.0,0 STARLINK-5530,1 56494U 23064AY  23164.29181971  .00000427  00000-0  53189-5 0  9991,2 56494  69.9984 150.9135 0003403 256.8008 103.2808 15.69927701  5293,6737.241,91.724,361.399,356.813,0.0
56494.0,STARLINK-5530,PAYLOAD,2023-06-14 10:31:45,15.69925233,0.0003485,69.9969,147.6878,269.7046,90.375,-1.5507e-06,-3.99e-06,0.0,0 STARLINK-5530,1 56494U 23064AY  23165.43872444 -.00000399  00000-0 -15507-5 0  9992,2 56494  69.9969 147.6878 0003485 269.7046  90.3750 15.69925233  5478,6737.248,91.724,361.461,356.765,0.0
56494.0,STARLINK-5530,PAYLOAD,2023-06-15 07:56:18,15.69916534,0.0002919,69.9982,145.1816,260.3437,99.7429,-7.4901e-06,-1.113e-05,0.0,0 STARLINK-5530,1 56494U 23064AY  23166.33076507 -.00001113  00000-0 -74901-5 0  9996,2 56494  69.9982 145.1816 0002919 260.3437  99.7429 15.69916534  5964,6737.273,91.725,361.104,357.171,0.0
56494.0,STARLINK-5530,PAYLOAD,2023-06-15 10:59:47,15.69927587,0.0003072,69.9977,144.8227,263.7038,96.3807,-1.2875e-05,-1.761e-05,0.0,0 STARLINK-5530,1 56494U 23064AY  23166.45819248 -.00001761  00000-0 -12875-4 0  9996,2 56494  69.9977 144.8227 0003072 263.7038  96.3807 15.69927587  5632,6737.241,91.724,361.176,357.036,0.0
56494.0,STARLINK-5530,PAYLOAD,2023-06-15 15:35:03,15.69919771,0.000294,69.9977,144.2848,282.2121,77.8745,1.0311e-05,1.027e-05,0.0,0 STARLINK-5530,1 56494U 23064AY  23166.64934503  .00001027  00000-0  10311-4 0  9995,2 56494  69.9977 144.2848 0002940 282.2121  77.8745 15.69919771  5661,6737.264,91.724,361.109,357.148,0.0
56494.0,STARLINK-5530,PAYLOAD,2023-06-16 00:45:33,15.69916759,0.0003391,69.9975,143.2089,264.7474,95.3334,3.1665e-05,3.595e-05,0.0,0 STARLINK-5530,1 56494U 23064AY  23167.03163976  .00003595  00000-0  31665-4 0  9994,2 56494  69.9975 143.2089 0003391 264.7474  95.3334 15.69916759  6070,6737.272,91.725,361.422,356.853,0.0
56494.0,STARLINK-5530,PAYLOAD,2023-06-16 09:56:04,15.69919841,0.0002961,69.9969,142.1348,272.0114,88.0743,2.6657e-06,1.08e-06,0.0,0 STARLINK-5530,1 56494U 23064AY  23167.41394509  .00000108  00000-0  26657-5 0  9997,2 56494  69.9969 142.1348 0002961 272.0114  88.0743 15.69919841  5789,6737.263,91.724,361.123,357.133,0.0
56494.0,STARLINK-5530,PAYLOAD,2023-06-16 22:10:06,15.69916309,0.0003318,69.9978,140.7026,265.1695,94.9122,2.5644e-06,9.6e-07,0.0,0 STARLINK-5530,1 56494U 23064AY  23167.92368098  .00000096  00000-0  25644-5 0  9998,2 56494  69.9978 140.7026 0003318 265.1695  94.9122 15.69916309  6212,6737.273,91.725,361.374,356.903,0.0
56494.0,STARLINK-5530,PAYLOAD,2023-06-17 10:24:06,15.69934678,0.0003708,69.9977,139.2681,261.4857,98.5918,-2.6993e-05,-3.459e-05,0.0,0 STARLINK-5530,1 56494U 23064AY  23168.43341059 -.00003459  00000-0 -26993-4 0  9998,2 56494  69.9977 139.2681 0003708 261.4857  98.5918 15.69934678  5944,6737.221,91.724,361.584,356.588,0.0
56494.0,STARLINK-5530,PAYLOAD,2023-06-17 14:59:21,15.69926223,0.000368,69.9979,138.7316,262.0056,98.0722,1.3446e-05,1.404e-05,0.0,0 STARLINK-5530,1 56494U 23064AY  23168.62455749  .00001404  00000-0  13446-4 0  9996,2 56494  69.9979 138.7316 0003680 262.0056  98.0722 15.69926223  6320,6737.245,91.724,361.589,356.631,0.0
56494.0,STARLINK-5530,PAYLOAD,2023-06-17 21:06:22,15.69927077,0.0003463,69.9976,138.0148,263.6702,96.41,1.0659e-05,1.069e-05,0.0,0 STARLINK-5530,1 56494U 23064AY  23168.87942514  .00001069  00000-0  10659-4 0  9994,2 56494  69.9976 138.0148 0003463 263.6702  96.4100 15.69927077  6013,6737.243,91.724,361.441,356.775,0.0
56494.0,STARLINK-5530,PAYLOAD,2023-06-18 04:45:07,15.69928636,0.0003347,69.9982,137.1183,261.8837,98.1979,5.969e-06,5.05e-06,0.0,0 STARLINK-5530,1 56494U 23064AY  23169.19800865  .00000505  00000-0  59690-5 0  9995,2 56494  69.9982 137.1183 0003347 261.8837  98.1979 15.69928636  6069,6737.238,91.724,361.358,356.848,0.0
56494.0,STARLINK-5530,PAYLOAD,2023-06-18 15:27:24,15.69921,0.000305,69.9979,135.8655,262.4107,97.6742,1.4438e-05,1.523e-05,0.0,0 STARLINK-5530,1 56494U 23064AY  23169.64402914  .00001523  00000-0  14438-4 0  9999,2 56494  69.9979 135.8655 0003050 262.4107  97.6742 15.69921000  6488,6737.26,91.724,361.18,357.07,0.0
56494.0,STARLINK-5530,PAYLOAD,2023-06-19 08:16:40,15.69917464,0.0003501,69.9983,133.8948,258.9901,101.0901,1.9234e-05,2.1e-05,0.0,0 STARLINK-5530,1 56494U 23064AY  23170.34491456  .00002100  00000-0  19234-4 0  9998,2 56494  69.9983 133.8948 0003501 258.9901 101.0901 15.69917464  6249,6737.27,91.725,361.494,356.776,0.0
56494.0,STARLINK-5530,PAYLOAD,2023-06-20 04:09:26,15.69927369,0.0003502,69.9972,131.5662,256.4407,103.6399,1.399e-05,1.47e-05,0.0,0 STARLINK-5530,1 56494U 23064AY  23171.17322684  .00001470  00000-0  13990-4 0  9998,2 56494  69.9972 131.5662 0003502 256.4407 103.6399 15.69927369  6727,6737.242,91.724,361.466,356.747,0.0
56494.0,STARLINK-5530,PAYLOAD,2023-06-20 08:44:42,15.69930187,0.0003901,69.997,131.027,265.5248,94.5502,5.6917e-06,4.71e-06,0.0,0 STARLINK-5530,1 56494U 23064AY  23171.36437673  .00000471  00000-0  56917-5 0  9991,2 56494  69.9970 131.0270 0003901 265.5248  94.5502 15.69930187  6403,6737.234,91.724,361.727,356.471,0.0
56494.0,STARLINK-5530,PAYLOAD,2023-06-20 14:51:43,15.69905694,0.0003314,69.9978,130.312,262.0533,98.0287,4.5449e-05,5.251e-05,0.0,0 STARLINK-5530,1 56494U 23064AY  23171.61925320  .00005251  00000-0  45449-4 0  9998,2 56494  69.9978 130.3120 0003314 262.0533  98.0287 15.69905694  6790,6737.304,91.725,361.402,356.936,0.0
56494.0,STARLINK-5530,PAYLOAD,2023-06-20 20:58:43,15.69923131,0.0003424,69.9966,129.595,260.4147,99.6662,3.9279e-06,2.59e-06,0.0,0 STARLINK-5530,1 56494U 23064AY  23171.87411593  .00000259  00000-0  39279-5 0  9996,2 56494  69.9966 129.5950 0003424 260.4147  99.6662 15.69923131  6489,6737.254,91.724,361.426,356.812,0.0
56494.0,STARLINK-5530,PAYLOAD,2023-06-21 00:02:13,15.69925243,0.0003183,69.998,129.2366,259.6752,100.4085,5.1368e-07,-1.51e-06,0.0,0 STARLINK-5530,1 56494U 23064AY  23172.00154898 -.00000151  00000-0  51368-6 0  9990,2 56494  69.9980 129.2366 0003183 259.6752 100.4085 15.69925243  6854,6737.248,91.724,361.257,356.968,0.0
56494.0,STARLINK-5530,PAYLOAD,2023-06-21 07:40:59,15.69926595,0.00036,69.997,128.342,272.7941,87.2843,1.1871e-05,1.215e-05,0.0,0 STARLINK-5530,1 56494U 23064AY  23172.32012911  .00001215  00000-0  11871-4 0  9998,2 56494  69.9970 128.3420 0003600 272.7941  87.2843 15.69926595  6556,6737.244,91.724,361.534,356.684,0.0
56494.0,STARLINK-5530,PAYLOAD,2023-06-22 00:30:16,15.69920437,0.0003832,69.9972,126.3701,268.7276,91.348,-3.8646e-06,-6.78e-06,0.0,0 STARLINK-5530,1 56494U 23064AY  23173.02102063 -.00000678  00000-0 -38646-5 0  9998,2 56494  69.9972 126.3701 0003832 268.7276  91.3480 15.69920437  7015,6737.262,91.724,361.708,356.545,0.0
